{
  "type": "FeatureCollection",
  "features": [
    {
      "type": "Feature",
      "properties": {
        "norad_id": 66663,
        "name": "KSLV-II R/B",
        "group": "last-30-days",
        "lat": 32.855768775583535,
        "lon": 92.6781669353442,
        "alt_km": 605.4692909975874,
        "timestamp": "2025-12-06T05:40:08.013127+00:00",
        "meta_object_name": "KSLV-II R/B",
        "meta_object_id": "2025-274P",
        "meta_epoch": "2025-12-04T19:19:56.440704",
        "meta_mean_motion": 14.9720989,
        "meta_eccentricity": 0.00474064,
        "meta_inclination": 97.74,
        "meta_ra_of_asc_node": 266.2222,
        "meta_arg_of_pericenter": 346.0223,
        "meta_mean_anomaly": 13.9683,
        "meta_ephemeris_type": 0,
        "meta_classification_type": "U",
        "meta_norad_cat_id": 66663,
        "meta_element_set_no": 999,
        "meta_rev_at_epoch": 122,
        "meta_bstar": 0.00017772252,
        "meta_mean_motion_dot": 2.041e-05,
        "meta_mean_motion_ddot": 0,
        "tle_line1": "1 66663U 25274P   25338.80551436  .00002041  00000+0  17772-3 0  9993",
        "tle_line2": "2 66663  97.7400 266.2222 0047406 346.0223  13.9683 14.97209890  1223"
      },
      "geometry": {
        "type": "Point",
        "coordinates": [
          92.6781669353442,
          32.855768775583535
        ]
      }
    },
    {
      "type": "Feature",
      "properties": {
        "norad_id": 66664,
        "name": "SOYUZ-MS 28",
        "group": "last-30-days",
        "lat": 51.56881711881577,
        "lon": -98.427262759257,
        "alt_km": 412.78481530790395,
        "timestamp": "2025-12-06T05:40:08.013137+00:00",
        "meta_object_name": "SOYUZ-MS 28",
        "meta_object_id": "2025-275A",
        "meta_epoch": "2025-12-05T06:04:12.236160",
        "meta_mean_motion": 15.49328184,
        "meta_eccentricity": 0.00035858,
        "meta_inclination": 51.6297,
        "meta_ra_of_asc_node": 179.5463,
        "meta_arg_of_pericenter": 206.2517,
        "meta_mean_anomaly": 153.8291,
        "meta_ephemeris_type": 0,
        "meta_classification_type": "U",
        "meta_norad_cat_id": 66664,
        "meta_element_set_no": 999,
        "meta_rev_at_epoch": 128,
        "meta_bstar": 0.0002719745,
        "meta_mean_motion_dot": 0.00014736,
        "meta_mean_motion_ddot": 0,
        "tle_line1": "1 66664U 25275A   25339.25291940  .00014736  00000+0  27197-3 0  9992",
        "tle_line2": "2 66664  51.6297 179.5463 0003585 206.2517 153.8291 15.49328184  1284"
      },
      "geometry": {
        "type": "Point",
        "coordinates": [
          -98.427262759257,
          51.56881711881577
        ]
      }
    },
    {
      "type": "Feature",
      "properties": {
        "norad_id": 66820,
        "name": "KOMPSAT-7",
        "group": "last-30-days",
        "lat": -21.827013428014638,
        "lon": 103.16366403304535,
        "alt_km": 572.2004801327575,
        "timestamp": "2025-12-06T05:40:08.013147+00:00",
        "meta_object_name": "KOMPSAT-7",
        "meta_object_id": "2025-279A",
        "meta_epoch": "2025-12-01T20:35:16.060992",
        "meta_mean_motion": 14.98310631,
        "meta_eccentricity": 0.00097501,
        "meta_inclination": 97.6394,
        "meta_ra_of_asc_node": 281.9587,
        "meta_arg_of_pericenter": 255.3935,
        "meta_mean_anomaly": 104.6207,
        "meta_ephemeris_type": 0,
        "meta_classification_type": "U",
        "meta_norad_cat_id": 66820,
        "meta_element_set_no": 999,
        "meta_rev_at_epoch": 2,
        "meta_bstar": 8.4407298e-05,
        "meta_mean_motion_dot": 9.47e-06,
        "meta_mean_motion_ddot": 0,
        "tle_line1": "1 66820U 25279A   25335.85782478  .00000947  00000+0  84407-4 0  9990",
        "tle_line2": "2 66820  97.6394 281.9587 0009750 255.3935 104.6207 14.98310631    23"
      },
      "geometry": {
        "type": "Point",
        "coordinates": [
          103.16366403304535,
          -21.827013428014638
        ]
      }
    },
    {
      "type": "Feature",
      "properties": {
        "norad_id": 66877,
        "name": "ZQ-3 R/B",
        "group": "last-30-days",
        "lat": 3.43606368115408,
        "lon": -99.97203818717277,
        "alt_km": 228.4685897448262,
        "timestamp": "2025-12-06T05:40:08.013160+00:00",
        "meta_object_name": "ZQ-3 R/B",
        "meta_object_id": "2025-282A",
        "meta_epoch": "2025-12-05T07:10:51.533184",
        "meta_mean_motion": 14.40698574,
        "meta_eccentricity": 0.08574754,
        "meta_inclination": 56.9554,
        "meta_ra_of_asc_node": 85.7648,
        "meta_arg_of_pericenter": 207.271,
        "meta_mean_anomaly": 148.0712,
        "meta_ephemeris_type": 0,
        "meta_classification_type": "U",
        "meta_norad_cat_id": 66877,
        "meta_element_set_no": 999,
        "meta_rev_at_epoch": 31,
        "meta_bstar": 0.00029209984,
        "meta_mean_motion_dot": 0.01317241,
        "meta_mean_motion_ddot": 7.178412e-06,
        "tle_line1": "1 66877U 25282A   25339.29920756  .01317241  71784-5  29210-3 0  9993",
        "tle_line2": "2 66877  56.9554  85.7648 0857475 207.2710 148.0712 14.40698574   318"
      },
      "geometry": {
        "type": "Point",
        "coordinates": [
          -99.97203818717277,
          3.43606368115408
        ]
      }
    },
    {
      "type": "Feature",
      "properties": {
        "norad_id": 66906,
        "name": "1998-067XS",
        "group": "last-30-days",
        "lat": 51.05872447652246,
        "lon": -84.00705296661145,
        "alt_km": 408.8146369837641,
        "timestamp": "2025-12-06T05:40:08.013171+00:00",
        "meta_object_name": "1998-067XS",
        "meta_object_id": "1998-067XS",
        "meta_epoch": "2025-12-04T20:45:28.746720",
        "meta_mean_motion": 15.49986178,
        "meta_eccentricity": 0.00041746,
        "meta_inclination": 51.6291,
        "meta_ra_of_asc_node": 181.4578,
        "meta_arg_of_pericenter": 168.934,
        "meta_mean_anomaly": 191.1741,
        "meta_ephemeris_type": 0,
        "meta_classification_type": "U",
        "meta_norad_cat_id": 66906,
        "meta_element_set_no": 999,
        "meta_rev_at_epoch": 39,
        "meta_bstar": 0.000624818,
        "meta_mean_motion_dot": 0.00035352,
        "meta_mean_motion_ddot": 0,
        "tle_line1": "1 66906U 98067XS  25338.86491605  .00035352  00000+0  62482-3 0  9999",
        "tle_line2": "2 66906  51.6291 181.4578 0004174 168.9340 191.1741 15.49986178   398"
      },
      "geometry": {
        "type": "Point",
        "coordinates": [
          -84.00705296661145,
          51.05872447652246
        ]
      }
    },
    {
      "type": "Feature",
      "properties": {
        "norad_id": 66907,
        "name": "1998-067XT",
        "group": "last-30-days",
        "lat": 50.70508665326474,
        "lon": -80.87135894637233,
        "alt_km": 408.39928579046955,
        "timestamp": "2025-12-06T05:40:08.013186+00:00",
        "meta_object_name": "1998-067XT",
        "meta_object_id": "1998-067XT",
        "meta_epoch": "2025-12-04T14:33:58.780512",
        "meta_mean_motion": 15.5013594,
        "meta_eccentricity": 0.00051159,
        "meta_inclination": 51.6278,
        "meta_ra_of_asc_node": 182.735,
        "meta_arg_of_pericenter": 181.696,
        "meta_mean_anomaly": 178.4012,
        "meta_ephemeris_type": 0,
        "meta_classification_type": "U",
        "meta_norad_cat_id": 66907,
        "meta_element_set_no": 999,
        "meta_rev_at_epoch": 35,
        "meta_bstar": 0.0016214223,
        "meta_mean_motion_dot": 0.00093671,
        "meta_mean_motion_ddot": 0,
        "tle_line1": "1 66907U 98067XT  25338.60693033  .00093671  00000+0  16214-2 0  9990",
        "tle_line2": "2 66907  51.6278 182.7350 0005115 181.6960 178.4012 15.50135940   352"
      },
      "geometry": {
        "type": "Point",
        "coordinates": [
          -80.87135894637233,
          50.70508665326474
        ]
      }
    },
    {
      "type": "Feature",
      "properties": {
        "norad_id": 66908,
        "name": "1998-067XU",
        "group": "last-30-days",
        "lat": 50.58394004167693,
        "lon": -79.94058441427248,
        "alt_km": 408.3157495762389,
        "timestamp": "2025-12-06T05:40:08.013197+00:00",
        "meta_object_name": "1998-067XU",
        "meta_object_id": "1998-067XU",
        "meta_epoch": "2025-12-04T23:50:53.483712",
        "meta_mean_motion": 15.50281808,
        "meta_eccentricity": 0.00055383,
        "meta_inclination": 51.6288,
        "meta_ra_of_asc_node": 180.8149,
        "meta_arg_of_pericenter": 185.3725,
        "meta_mean_anomaly": 174.7205,
        "meta_ephemeris_type": 0,
        "meta_classification_type": "U",
        "meta_norad_cat_id": 66908,
        "meta_element_set_no": 999,
        "meta_rev_at_epoch": 41,
        "meta_bstar": 0.0015643981,
        "meta_mean_motion_dot": 0.00090804,
        "meta_mean_motion_ddot": 0,
        "tle_line1": "1 66908U 98067XU  25338.99367458  .00090804  00000+0  15644-2 0  9993",
        "tle_line2": "2 66908  51.6288 180.8149 0005538 185.3725 174.7205 15.50281808   413"
      },
      "geometry": {
        "type": "Point",
        "coordinates": [
          -79.94058441427248,
          50.58394004167693
        ]
      }
    }
  ]
}